[{"OBJECT_NAME":"STARLINK-1559","OBJECT_ID":"2020-055BC","EPOCH":"2026-03-09T05:36:23.522976","MEAN_MOTION":15.29461733,"ECCENTRICITY":0.0004229,"INCLINATION":53.0254,"RA_OF_ASC_NODE":76.0659,"ARG_OF_PERICENTER":33.971,"MEAN_ANOMALY":326.1559,"EPHEMERIS_TYPE":0,"CLASSIFICATION_TYPE":"U","NORAD_CAT_ID":46077,"ELEMENT_SET_NO":999,"REV_AT_EPOCH":30951,"BSTAR":0.0014778793,"MEAN_MOTION_DOT":0.00042685,"MEAN_MOTION_DDOT":0},{"OBJECT_NAME":"STARLINK-36174","OBJECT_ID":"2025-303D","EPOCH":"2026-03-09T01:54:54.106560","MEAN_MOTION":15.2759752,"ECCENTRICITY":0.00025097,"INCLINATION":43.0029,"RA_OF_ASC_NODE":314.0153,"ARG_OF_PERICENTER":253.7546,"MEAN_ANOMALY":106.303,"EPHEMERIS_TYPE":0,"CLASSIFICATION_TYPE":"U","NORAD_CAT_ID":67166,"ELEMENT_SET_NO":999,"REV_AT_EPOCH":1264,"BSTAR":0.001439838,"MEAN_MOTION_DOT":0.00039595,"MEAN_MOTION_DDOT":0}]
